[{"OBJECT_NAME":"ITAMSAT (IO-26)","OBJECT_ID":"1993-061D","EPOCH":"2026-03-09T18:51:40.558176","MEAN_MOTION":14.31337175,"ECCENTRICITY":0.00091856,"INCLINATION":98.6929,"RA_OF_ASC_NODE":136.1036,"ARG_OF_PERICENTER":22.8845,"MEAN_ANOMALY":337.2746,"EPHEMERIS_TYPE":0,"CLASSIFICATION_TYPE":"U","NORAD_CAT_ID":22826,"ELEMENT_SET_NO":999,"REV_AT_EPOCH":69309,"BSTAR":7.3937292e-5,"MEAN_MOTION_DOT":1.51e-6,"MEAN_MOTION_DDOT":0},{"OBJECT_NAME":"HEALTHSAT 1","OBJECT_ID":"1993-061E","EPOCH":"2026-03-09T17:44:06.863712","MEAN_MOTION":14.32505034,"ECCENTRICITY":0.00080688,"INCLINATION":98.6505,"RA_OF_ASC_NODE":137.4411,"ARG_OF_PERICENTER":326.1753,"MEAN_ANOMALY":147.9059,"EPHEMERIS_TYPE":0,"CLASSIFICATION_TYPE":"U","NORAD_CAT_ID":22827,"ELEMENT_SET_NO":999,"REV_AT_EPOCH":69385,"BSTAR":9.7207774e-5,"MEAN_MOTION_DOT":2.19e-6,"MEAN_MOTION_DDOT":0}]
